{"type": "FeatureCollection", "id": "http://www.github.com/sparqlunicorn#Point_collection", "name": "Point Instances Collection", "features": [{"type": "Feature", "id": "http://www.github.com/sparqlunicorn#389c5712-618e-4532-84fd-4eb084e6c0aa_geom", "name": "389c5712-618e-4532-84fd-4eb084e6c0aa_geom (suni:389c5712-618e-4532-84fd-4eb084e6c0aa_geom)", "dateprops": [], "properties": {}, "geometry": {"type": "Point", "coordinates": [20.026574, 63.880119]}}, {"type": "Feature", "id": "http://www.github.com/sparqlunicorn#0cc84bdb-a46b-47fc-851f-925f22e3fd77_geom", "name": "0cc84bdb-a46b-47fc-851f-925f22e3fd77_geom (suni:0cc84bdb-a46b-47fc-851f-925f22e3fd77_geom)", "dateprops": [], "properties": {}, "geometry": {"type": "Point", "coordinates": [20.026384, 63.880102]}}, {"type": "Feature", "id": "http://www.github.com/sparqlunicorn#1d935768-ea8d-4be8-884b-a4dff9825021_geom", "name": "1d935768-ea8d-4be8-884b-a4dff9825021_geom (suni:1d935768-ea8d-4be8-884b-a4dff9825021_geom)", "dateprops": [], "properties": {}, "geometry": {"type": "Point", "coordinates": [20.02659, 63.880125]}}, {"type": "Feature", "id": "http://www.github.com/sparqlunicorn#dca0e312-48bb-4ff0-9316-fa71cdda0c9c_geom", "name": "dca0e312-48bb-4ff0-9316-fa71cdda0c9c_geom (suni:dca0e312-48bb-4ff0-9316-fa71cdda0c9c_geom)", "dateprops": [], "properties": {}, "geometry": {"type": "Point", "coordinates": [20.026494, 63.880144]}}, {"type": "Feature", "id": "http://www.github.com/sparqlunicorn#8a40c3de-b0fb-4dc0-84d4-2000b15d6f60_geom", "name": "8a40c3de-b0fb-4dc0-84d4-2000b15d6f60_geom (suni:8a40c3de-b0fb-4dc0-84d4-2000b15d6f60_geom)", "dateprops": [], "properties": {}, "geometry": {"type": "Point", "coordinates": [20.026516, 63.880147]}}, {"type": "Feature", "id": "http://www.github.com/sparqlunicorn#3e78afb0-3e1c-4814-a038-dfde669dc4c1_geom", "name": "3e78afb0-3e1c-4814-a038-dfde669dc4c1_geom (suni:3e78afb0-3e1c-4814-a038-dfde669dc4c1_geom)", "dateprops": [], "properties": {}, "geometry": {"type": "Point", "coordinates": [20.026551, 63.88013]}}, {"type": "Feature", "id": "http://www.github.com/sparqlunicorn#f4c616a4-3188-45f4-ad66-878498003c20_geom", "name": "f4c616a4-3188-45f4-ad66-878498003c20_geom (suni:f4c616a4-3188-45f4-ad66-878498003c20_geom)", "dateprops": [], "properties": {}, "geometry": {"type": "Point", "coordinates": [20.026574, 63.880119]}}, {"type": "Feature", "id": "http://www.github.com/sparqlunicorn#a3228d61-d64a-4b1f-be73-130b222b1c11_geom", "name": "a3228d61-d64a-4b1f-be73-130b222b1c11_geom (suni:a3228d61-d64a-4b1f-be73-130b222b1c11_geom)", "dateprops": [], "properties": {}, "geometry": {"type": "Point", "coordinates": [20.026552, 63.88011]}}, {"type": "Feature", "id": "http://www.github.com/sparqlunicorn#6a176aee-0f30-4da3-bd88-b48f61a6a5ca_geom", "name": "6a176aee-0f30-4da3-bd88-b48f61a6a5ca_geom (suni:6a176aee-0f30-4da3-bd88-b48f61a6a5ca_geom)", "dateprops": [], "properties": {}, "geometry": {"type": "Point", "coordinates": [20.026576, 63.880135]}}, {"type": "Feature", "id": "http://www.github.com/sparqlunicorn#a3006e8d-46d6-4db0-81aa-23238514e5eb_geom", "name": "a3006e8d-46d6-4db0-81aa-23238514e5eb_geom (suni:a3006e8d-46d6-4db0-81aa-23238514e5eb_geom)", "dateprops": [], "properties": {}, "geometry": {"type": "Point", "coordinates": [20.026559, 63.880133]}}, {"type": "Feature", "id": "http://www.github.com/sparqlunicorn#fab26445-cb25-492a-8d8a-47f31706a753_geom", "name": "fab26445-cb25-492a-8d8a-47f31706a753_geom (suni:fab26445-cb25-492a-8d8a-47f31706a753_geom)", "dateprops": [], "properties": {}, "geometry": {"type": "Point", "coordinates": [20.026568, 63.880109]}}, {"type": "Feature", "id": "http://www.github.com/sparqlunicorn#49ca3504-ffe4-4ec4-bd95-72123b14e48e_geom", "name": "49ca3504-ffe4-4ec4-bd95-72123b14e48e_geom (suni:49ca3504-ffe4-4ec4-bd95-72123b14e48e_geom)", "dateprops": [], "properties": {}, "geometry": {"type": "Point", "coordinates": [20.026509, 63.880149]}}, {"type": "Feature", "id": "http://www.github.com/sparqlunicorn#327283ae-3a31-4397-ae77-2566e4d146b6_geom", "name": "327283ae-3a31-4397-ae77-2566e4d146b6_geom (suni:327283ae-3a31-4397-ae77-2566e4d146b6_geom)", "dateprops": [], "properties": {}, "geometry": {"type": "Point", "coordinates": [20.026492, 63.880107]}}, {"type": "Feature", "id": "http://www.github.com/sparqlunicorn#b7ee573a-bf90-4f57-b159-39e1fc2822a8_geom", "name": "b7ee573a-bf90-4f57-b159-39e1fc2822a8_geom (suni:b7ee573a-bf90-4f57-b159-39e1fc2822a8_geom)", "dateprops": [], "properties": {}, "geometry": {"type": "Point", "coordinates": [20.026546, 63.880125]}}, {"type": "Feature", "id": "http://www.github.com/sparqlunicorn#047d2aa4-c98d-4c8e-bba6-c5bc935b626a_geom", "name": "047d2aa4-c98d-4c8e-bba6-c5bc935b626a_geom (suni:047d2aa4-c98d-4c8e-bba6-c5bc935b626a_geom)", "dateprops": [], "properties": {}, "geometry": {"type": "Point", "coordinates": [20.026546, 63.880125]}}, {"type": "Feature", "id": "http://www.github.com/sparqlunicorn#de109b58-0791-4eb7-9fff-d536f15297af_geom", "name": "de109b58-0791-4eb7-9fff-d536f15297af_geom (suni:de109b58-0791-4eb7-9fff-d536f15297af_geom)", "dateprops": [], "properties": {}, "geometry": {"type": "Point", "coordinates": [20.026516, 63.880147]}}, {"type": "Feature", "id": "http://www.github.com/sparqlunicorn#a9d036a7-9001-47c8-89db-54c0fe8d6829_geom", "name": "a9d036a7-9001-47c8-89db-54c0fe8d6829_geom (suni:a9d036a7-9001-47c8-89db-54c0fe8d6829_geom)", "dateprops": [], "properties": {}, "geometry": {"type": "Point", "coordinates": [20.026589, 63.88013]}}, {"type": "Feature", "id": "http://www.github.com/sparqlunicorn#45d241e5-c948-4ae3-860b-668b54894e58_geom", "name": "45d241e5-c948-4ae3-860b-668b54894e58_geom (suni:45d241e5-c948-4ae3-860b-668b54894e58_geom)", "dateprops": [], "properties": {}, "geometry": {"type": "Point", "coordinates": [20.026557, 63.880125]}}, {"type": "Feature", "id": "http://www.github.com/sparqlunicorn#4a4c2cd5-02ce-415c-b812-ec9fd13d73c6_geom", "name": "4a4c2cd5-02ce-415c-b812-ec9fd13d73c6_geom (suni:4a4c2cd5-02ce-415c-b812-ec9fd13d73c6_geom)", "dateprops": [], "properties": {}, "geometry": {"type": "Point", "coordinates": [20.026562, 63.880111]}}, {"type": "Feature", "id": "http://www.github.com/sparqlunicorn#31615fc1-a7de-48af-80a2-777dd77760b2_geom", "name": "31615fc1-a7de-48af-80a2-777dd77760b2_geom (suni:31615fc1-a7de-48af-80a2-777dd77760b2_geom)", "dateprops": [], "properties": {}, "geometry": {"type": "Point", "coordinates": [20.026582, 63.880143]}}, {"type": "Feature", "id": "http://www.github.com/sparqlunicorn#a7f106af-5755-44ed-9ba2-86b1110e21f7_geom", "name": "a7f106af-5755-44ed-9ba2-86b1110e21f7_geom (suni:a7f106af-5755-44ed-9ba2-86b1110e21f7_geom)", "dateprops": [], "properties": {}, "geometry": {"type": "Point", "coordinates": [20.02659, 63.880125]}}, {"type": "Feature", "id": "http://www.github.com/sparqlunicorn#ea530a2d-219a-4b12-a8b4-4cf7ca09b6b1_geom", "name": "ea530a2d-219a-4b12-a8b4-4cf7ca09b6b1_geom (suni:ea530a2d-219a-4b12-a8b4-4cf7ca09b6b1_geom)", "dateprops": [], "properties": {}, "geometry": {"type": "Point", "coordinates": [20.026586, 63.880122]}}, {"type": "Feature", "id": "http://www.github.com/sparqlunicorn#eec807e9-47d0-4801-a3f8-017c818a99e7_geom", "name": "eec807e9-47d0-4801-a3f8-017c818a99e7_geom (suni:eec807e9-47d0-4801-a3f8-017c818a99e7_geom)", "dateprops": [], "properties": {}, "geometry": {"type": "Point", "coordinates": [20.02652, 63.880144]}}, {"type": "Feature", "id": "http://www.github.com/sparqlunicorn#09dd46c1-cd5f-4f5a-b2fa-2341b6d0c9eb_geom", "name": "09dd46c1-cd5f-4f5a-b2fa-2341b6d0c9eb_geom (suni:09dd46c1-cd5f-4f5a-b2fa-2341b6d0c9eb_geom)", "dateprops": [], "properties": {}, "geometry": {"type": "Point", "coordinates": [20.02664, 63.880141]}}, {"type": "Feature", "id": "http://www.github.com/sparqlunicorn#521dd20c-2456-40a9-8b2b-0064396ccb07_geom", "name": "521dd20c-2456-40a9-8b2b-0064396ccb07_geom (suni:521dd20c-2456-40a9-8b2b-0064396ccb07_geom)", "dateprops": [], "properties": {}, "geometry": {"type": "Point", "coordinates": [20.026492, 63.880107]}}, {"type": "Feature", "id": "http://www.github.com/sparqlunicorn#6247dd7d-45da-4805-9922-ad78d30ddc00_geom", "name": "6247dd7d-45da-4805-9922-ad78d30ddc00_geom (suni:6247dd7d-45da-4805-9922-ad78d30ddc00_geom)", "dateprops": [], "properties": {}, "geometry": {"type": "Point", "coordinates": [20.026494, 63.880144]}}, {"type": "Feature", "id": "http://www.github.com/sparqlunicorn#6f14de57-897a-4758-a984-262ca18baf75_geom", "name": "6f14de57-897a-4758-a984-262ca18baf75_geom (suni:6f14de57-897a-4758-a984-262ca18baf75_geom)", "dateprops": [], "properties": {}, "geometry": {"type": "Point", "coordinates": [20.026589, 63.88013]}}, {"type": "Feature", "id": "http://www.github.com/sparqlunicorn#0d9d574e-754a-4f9c-93b7-47fc15d4f2d3_geom", "name": "0d9d574e-754a-4f9c-93b7-47fc15d4f2d3_geom (suni:0d9d574e-754a-4f9c-93b7-47fc15d4f2d3_geom)", "dateprops": [], "properties": {}, "geometry": {"type": "Point", "coordinates": [20.026551, 63.88013]}}, {"type": "Feature", "id": "http://www.github.com/sparqlunicorn#fdf099f7-869f-499e-80c3-00c91f0a4d35_geom", "name": "fdf099f7-869f-499e-80c3-00c91f0a4d35_geom (suni:fdf099f7-869f-499e-80c3-00c91f0a4d35_geom)", "dateprops": [], "properties": {}, "geometry": {"type": "Point", "coordinates": [20.026586, 63.880122]}}, {"type": "Feature", "id": "http://www.github.com/sparqlunicorn#18d49631-5a11-48f6-acb7-62cfaf8de742_geom", "name": "18d49631-5a11-48f6-acb7-62cfaf8de742_geom (suni:18d49631-5a11-48f6-acb7-62cfaf8de742_geom)", "dateprops": [], "properties": {}, "geometry": {"type": "Point", "coordinates": [20.026557, 63.880125]}}, {"type": "Feature", "id": "http://www.github.com/sparqlunicorn#866cbf6d-496f-4aff-acce-5f47e32fdcd9_geom", "name": "866cbf6d-496f-4aff-acce-5f47e32fdcd9_geom (suni:866cbf6d-496f-4aff-acce-5f47e32fdcd9_geom)", "dateprops": [], "properties": {}, "geometry": {"type": "Point", "coordinates": [20.026384, 63.880102]}}, {"type": "Feature", "id": "http://www.github.com/sparqlunicorn#3d393a7a-ea8c-45d2-aca7-1453da500bb5_geom", "name": "3d393a7a-ea8c-45d2-aca7-1453da500bb5_geom (suni:3d393a7a-ea8c-45d2-aca7-1453da500bb5_geom)", "dateprops": [], "properties": {}, "geometry": {"type": "Point", "coordinates": [20.02652, 63.880144]}}, {"type": "Feature", "id": "http://www.github.com/sparqlunicorn#d5710f70-63c7-4107-ac87-3fad0dca5830_geom", "name": "d5710f70-63c7-4107-ac87-3fad0dca5830_geom (suni:d5710f70-63c7-4107-ac87-3fad0dca5830_geom)", "dateprops": [], "properties": {}, "geometry": {"type": "Point", "coordinates": [20.02664, 63.880141]}}, {"type": "Feature", "id": "http://www.github.com/sparqlunicorn#43445b66-c4c5-4668-8fb7-00186131c6ff_geom", "name": "43445b66-c4c5-4668-8fb7-00186131c6ff_geom (suni:43445b66-c4c5-4668-8fb7-00186131c6ff_geom)", "dateprops": [], "properties": {}, "geometry": {"type": "Point", "coordinates": [20.026568, 63.880109]}}, {"type": "Feature", "id": "http://www.github.com/sparqlunicorn#37993191-20c4-49a4-b3bc-2a28960f323d_geom", "name": "37993191-20c4-49a4-b3bc-2a28960f323d_geom (suni:37993191-20c4-49a4-b3bc-2a28960f323d_geom)", "dateprops": [], "properties": {}, "geometry": {"type": "Point", "coordinates": [20.026501, 63.880147]}}, {"type": "Feature", "id": "http://www.github.com/sparqlunicorn#54e13ec0-7b5a-4f4a-892f-615ab97d9000_geom", "name": "54e13ec0-7b5a-4f4a-892f-615ab97d9000_geom (suni:54e13ec0-7b5a-4f4a-892f-615ab97d9000_geom)", "dateprops": [], "properties": {}, "geometry": {"type": "Point", "coordinates": [20.026562, 63.880111]}}, {"type": "Feature", "id": "http://www.github.com/sparqlunicorn#b1984fb3-ca88-4453-8fa3-b782d735052c_geom", "name": "b1984fb3-ca88-4453-8fa3-b782d735052c_geom (suni:b1984fb3-ca88-4453-8fa3-b782d735052c_geom)", "dateprops": [], "properties": {}, "geometry": {"type": "Point", "coordinates": [20.026501, 63.880147]}}, {"type": "Feature", "id": "http://www.github.com/sparqlunicorn#0b12b1c6-4f43-4635-9437-2eccad89860a_geom", "name": "0b12b1c6-4f43-4635-9437-2eccad89860a_geom (suni:0b12b1c6-4f43-4635-9437-2eccad89860a_geom)", "dateprops": [], "properties": {}, "geometry": {"type": "Point", "coordinates": [20.026552, 63.88011]}}, {"type": "Feature", "id": "http://www.github.com/sparqlunicorn#c7c46dd9-6977-4662-86fa-7bd465591b65_geom", "name": "c7c46dd9-6977-4662-86fa-7bd465591b65_geom (suni:c7c46dd9-6977-4662-86fa-7bd465591b65_geom)", "dateprops": [], "properties": {}, "geometry": {"type": "Point", "coordinates": [20.026582, 63.880143]}}, {"type": "Feature", "id": "http://www.github.com/sparqlunicorn#4e1bbd40-75c2-4134-abdf-71a85b238394_geom", "name": "4e1bbd40-75c2-4134-abdf-71a85b238394_geom (suni:4e1bbd40-75c2-4134-abdf-71a85b238394_geom)", "dateprops": [], "properties": {}, "geometry": {"type": "Point", "coordinates": [20.026509, 63.880149]}}, {"type": "Feature", "id": "http://www.github.com/sparqlunicorn#ddc25136-83aa-463c-9460-c718847292e0_geom", "name": "ddc25136-83aa-463c-9460-c718847292e0_geom (suni:ddc25136-83aa-463c-9460-c718847292e0_geom)", "dateprops": [], "properties": {}, "geometry": {"type": "Point", "coordinates": [20.026559, 63.880133]}}, {"type": "Feature", "id": "http://www.github.com/sparqlunicorn#dc5ba2e0-7975-466e-930f-a5469030df40_geom", "name": "dc5ba2e0-7975-466e-930f-a5469030df40_geom (suni:dc5ba2e0-7975-466e-930f-a5469030df40_geom)", "dateprops": [], "properties": {}, "geometry": {"type": "Point", "coordinates": [20.026576, 63.880135]}}], "numberMatched": 42, "numberReturned": 42, "bbox": [20.026384, 63.880102, 20.02664, 63.880149], "crs": "http://www.opengis.net/def/crs/EPSG/0/4326"}