{
"type": "FeatureCollection",
"name": "points_tmp",
"crs": { "type": "name", "properties": { "name": "urn:ogc:def:crs:OGC:1.3:CRS84" } },
"xy_coordinate_resolution": 1e-06,
"features": [
{ "type": "Feature", "properties": { "fid": 1, "id": "45", "type": "Stone" }, "geometry": { "type": "Point", "coordinates": [ 20.026582, 63.880143 ] } },
{ "type": "Feature", "properties": { "fid": 2, "id": "44", "type": "Stone" }, "geometry": { "type": "Point", "coordinates": [ 20.026546, 63.880125 ] } },
{ "type": "Feature", "properties": { "fid": 3, "id": "33", "type": "Stone" }, "geometry": { "type": "Point", "coordinates": [ 20.026552, 63.88011 ] } },
{ "type": "Feature", "properties": { "fid": 4, "id": "31", "type": "Stone" }, "geometry": { "type": "Point", "coordinates": [ 20.026568, 63.880109 ] } },
{ "type": "Feature", "properties": { "fid": 5, "id": "59", "type": "Minions" }, "geometry": { "type": "Point", "coordinates": [ 20.026494, 63.880144 ] } },
{ "type": "Feature", "properties": { "fid": 6, "id": "58", "type": "Minions" }, "geometry": { "type": "Point", "coordinates": [ 20.026501, 63.880147 ] } },
{ "type": "Feature", "properties": { "fid": 7, "id": "57", "type": "Minions" }, "geometry": { "type": "Point", "coordinates": [ 20.026509, 63.880149 ] } },
{ "type": "Feature", "properties": { "fid": 8, "id": "56", "type": "Minions" }, "geometry": { "type": "Point", "coordinates": [ 20.026516, 63.880147 ] } },
{ "type": "Feature", "properties": { "fid": 9, "id": "55", "type": "Minions" }, "geometry": { "type": "Point", "coordinates": [ 20.02652, 63.880144 ] } },
{ "type": "Feature", "properties": { "fid": 10, "id": "38", "type": "Minions" }, "geometry": { "type": "Point", "coordinates": [ 20.026576, 63.880135 ] } },
{ "type": "Feature", "properties": { "fid": 11, "id": "46", "type": "Minions" }, "geometry": { "type": "Point", "coordinates": [ 20.02664, 63.880141 ] } },
{ "type": "Feature", "properties": { "fid": 12, "id": "41", "type": "Minions" }, "geometry": { "type": "Point", "coordinates": [ 20.026559, 63.880133 ] } },
{ "type": "Feature", "properties": { "fid": 13, "id": "43", "type": "Minions" }, "geometry": { "type": "Point", "coordinates": [ 20.026551, 63.88013 ] } },
{ "type": "Feature", "properties": { "fid": 14, "id": "42", "type": "Minions" }, "geometry": { "type": "Point", "coordinates": [ 20.026557, 63.880125 ] } },
{ "type": "Feature", "properties": { "fid": 15, "id": "34", "type": "Minions" }, "geometry": { "type": "Point", "coordinates": [ 20.026574, 63.880119 ] } },
{ "type": "Feature", "properties": { "fid": 16, "id": "36", "type": "Minions" }, "geometry": { "type": "Point", "coordinates": [ 20.026586, 63.880122 ] } },
{ "type": "Feature", "properties": { "fid": 17, "id": "35", "type": "Minions" }, "geometry": { "type": "Point", "coordinates": [ 20.02659, 63.880125 ] } },
{ "type": "Feature", "properties": { "fid": 18, "id": "37", "type": "Minions" }, "geometry": { "type": "Point", "coordinates": [ 20.026589, 63.88013 ] } },
{ "type": "Feature", "properties": { "fid": 19, "id": "81", "type": "Kötbullar" }, "geometry": { "type": "Point", "coordinates": [ 20.026384, 63.880102 ] } },
{ "type": "Feature", "properties": { "fid": 20, "id": "159", "type": "Kötbullar" }, "geometry": { "type": "Point", "coordinates": [ 20.026492, 63.880107 ] } },
{ "type": "Feature", "properties": { "fid": 21, "id": "32", "type": "Kötbullar" }, "geometry": { "type": "Point", "coordinates": [ 20.026562, 63.880111 ] } }
]
}
