{"type": "FeatureCollection", "id": "http://www.github.com/sparqlunicorn#Stone_collection", "name": "Stone Instances Collection", "features": [{"type": "Feature", "id": "http://www.github.com/sparqlunicorn#b7ee573a-bf90-4f57-b159-39e1fc2822a8", "name": "b7ee573a-bf90-4f57-b159-39e1fc2822a8 (suni:b7ee573a-bf90-4f57-b159-39e1fc2822a8)", "dateprops": [], "properties": {}, "geometry": {"type": "Point", "coordinates": [20.026546, 63.880125]}}, {"type": "Feature", "id": "http://www.github.com/sparqlunicorn#c7c46dd9-6977-4662-86fa-7bd465591b65", "name": "c7c46dd9-6977-4662-86fa-7bd465591b65 (suni:c7c46dd9-6977-4662-86fa-7bd465591b65)", "dateprops": [], "properties": {}, "geometry": {"type": "Point", "coordinates": [20.026582, 63.880143]}}, {"type": "Feature", "id": "http://www.github.com/sparqlunicorn#43445b66-c4c5-4668-8fb7-00186131c6ff", "name": "43445b66-c4c5-4668-8fb7-00186131c6ff (suni:43445b66-c4c5-4668-8fb7-00186131c6ff)", "dateprops": [], "properties": {}, "geometry": {"type": "Point", "coordinates": [20.026568, 63.880109]}}, {"type": "Feature", "id": "http://www.github.com/sparqlunicorn#0b12b1c6-4f43-4635-9437-2eccad89860a", "name": "0b12b1c6-4f43-4635-9437-2eccad89860a (suni:0b12b1c6-4f43-4635-9437-2eccad89860a)", "dateprops": [], "properties": {}, "geometry": {"type": "Point", "coordinates": [20.026552, 63.88011]}}], "numberMatched": 4, "numberReturned": 4, "bbox": [20.026546, 63.880109, 20.026582, 63.880143], "crs": "http://www.opengis.net/def/crs/EPSG/0/4326"}