{"type": "FeatureCollection", "id": "http://www.github.com/sparqlunicorn#Minion_collection", "name": "Minion Instances Collection", "features": [{"type": "Feature", "id": "http://www.github.com/sparqlunicorn#ba7170d7-475e-4502-9cbd-054d5d326a7d", "name": "ba7170d7-475e-4502-9cbd-054d5d326a7d (suni:ba7170d7-475e-4502-9cbd-054d5d326a7d)", "dateprops": [], "properties": {}, "geometry": {"type": "Polygon", "coordinates": [[[20.024845, 63.879076], [20.02484, 63.879053], [20.024894, 63.879053], [20.024916, 63.87906], [20.024918, 63.87907], [20.024876, 63.879066], [20.024864, 63.879058], [20.024864, 63.879058], [20.024845, 63.879076]]]}}, {"type": "Feature", "id": "http://www.github.com/sparqlunicorn#8a40c3de-b0fb-4dc0-84d4-2000b15d6f60", "name": "8a40c3de-b0fb-4dc0-84d4-2000b15d6f60 (suni:8a40c3de-b0fb-4dc0-84d4-2000b15d6f60)", "dateprops": [], "properties": {}, "geometry": {"type": "Point", "coordinates": [20.026516, 63.880147]}}, {"type": "Feature", "id": "http://www.github.com/sparqlunicorn#6a176aee-0f30-4da3-bd88-b48f61a6a5ca", "name": "6a176aee-0f30-4da3-bd88-b48f61a6a5ca (suni:6a176aee-0f30-4da3-bd88-b48f61a6a5ca)", "dateprops": [], "properties": {}, "geometry": {"type": "Point", "coordinates": [20.026576, 63.880135]}}, {"type": "Feature", "id": "http://www.github.com/sparqlunicorn#0d9d574e-754a-4f9c-93b7-47fc15d4f2d3", "name": "0d9d574e-754a-4f9c-93b7-47fc15d4f2d3 (suni:0d9d574e-754a-4f9c-93b7-47fc15d4f2d3)", "dateprops": [], "properties": {}, "geometry": {"type": "Point", "coordinates": [20.026551, 63.88013]}}, {"type": "Feature", "id": "http://www.github.com/sparqlunicorn#ab7a69ca-6c8f-4d13-893b-3702231a60b7", "name": "ab7a69ca-6c8f-4d13-893b-3702231a60b7 (suni:ab7a69ca-6c8f-4d13-893b-3702231a60b7)", "dateprops": [], "properties": {}, "geometry": {"type": "Polygon", "coordinates": [[[20.024747, 63.879279], [20.024795, 63.879306], [20.024831, 63.879295], [20.024835, 63.879284], [20.024813, 63.879275], [20.024769, 63.879271], [20.024747, 63.879279]]]}}, {"type": "Feature", "id": "http://www.github.com/sparqlunicorn#a9d036a7-9001-47c8-89db-54c0fe8d6829", "name": "a9d036a7-9001-47c8-89db-54c0fe8d6829 (suni:a9d036a7-9001-47c8-89db-54c0fe8d6829)", "dateprops": [], "properties": {}, "geometry": {"type": "Point", "coordinates": [20.026589, 63.88013]}}, {"type": "Feature", "id": "http://www.github.com/sparqlunicorn#fdf099f7-869f-499e-80c3-00c91f0a4d35", "name": "fdf099f7-869f-499e-80c3-00c91f0a4d35 (suni:fdf099f7-869f-499e-80c3-00c91f0a4d35)", "dateprops": [], "properties": {}, "geometry": {"type": "Point", "coordinates": [20.026586, 63.880122]}}, {"type": "Feature", "id": "http://www.github.com/sparqlunicorn#6247dd7d-45da-4805-9922-ad78d30ddc00", "name": "6247dd7d-45da-4805-9922-ad78d30ddc00 (suni:6247dd7d-45da-4805-9922-ad78d30ddc00)", "dateprops": [], "properties": {}, "geometry": {"type": "Point", "coordinates": [20.026494, 63.880144]}}, {"type": "Feature", "id": "http://www.github.com/sparqlunicorn#4e1bbd40-75c2-4134-abdf-71a85b238394", "name": "4e1bbd40-75c2-4134-abdf-71a85b238394 (suni:4e1bbd40-75c2-4134-abdf-71a85b238394)", "dateprops": [], "properties": {}, "geometry": {"type": "Point", "coordinates": [20.026509, 63.880149]}}, {"type": "Feature", "id": "http://www.github.com/sparqlunicorn#3d393a7a-ea8c-45d2-aca7-1453da500bb5", "name": "3d393a7a-ea8c-45d2-aca7-1453da500bb5 (suni:3d393a7a-ea8c-45d2-aca7-1453da500bb5)", "dateprops": [], "properties": {}, "geometry": {"type": "Point", "coordinates": [20.02652, 63.880144]}}, {"type": "Feature", "id": "http://www.github.com/sparqlunicorn#09dd46c1-cd5f-4f5a-b2fa-2341b6d0c9eb", "name": "09dd46c1-cd5f-4f5a-b2fa-2341b6d0c9eb (suni:09dd46c1-cd5f-4f5a-b2fa-2341b6d0c9eb)", "dateprops": [], "properties": {}, "geometry": {"type": "Point", "coordinates": [20.02664, 63.880141]}}, {"type": "Feature", "id": "http://www.github.com/sparqlunicorn#fd8fe6ba-e13a-4ef3-9047-626fc45be9e2", "name": "fd8fe6ba-e13a-4ef3-9047-626fc45be9e2 (suni:fd8fe6ba-e13a-4ef3-9047-626fc45be9e2)", "dateprops": [], "properties": {}, "geometry": {"type": "Polygon", "coordinates": [[[20.0251, 63.879159], [20.025171, 63.879161], [20.025164, 63.879134], [20.025131, 63.879117], [20.025107, 63.879131], [20.025096, 63.879137], [20.025096, 63.879138], [20.025085, 63.879145], [20.025086, 63.879153], [20.0251, 63.879159]]]}}, {"type": "Feature", "id": "http://www.github.com/sparqlunicorn#18d49631-5a11-48f6-acb7-62cfaf8de742", "name": "18d49631-5a11-48f6-acb7-62cfaf8de742 (suni:18d49631-5a11-48f6-acb7-62cfaf8de742)", "dateprops": [], "properties": {}, "geometry": {"type": "Point", "coordinates": [20.026557, 63.880125]}}, {"type": "Feature", "id": "http://www.github.com/sparqlunicorn#62c65c41-af9e-4af8-af61-97602598da5c", "name": "62c65c41-af9e-4af8-af61-97602598da5c (suni:62c65c41-af9e-4af8-af61-97602598da5c)", "dateprops": [], "properties": {}, "geometry": {"type": "Polygon", "coordinates": [[[20.02489, 63.879311], [20.024959, 63.879318], [20.024957, 63.879306], [20.024937, 63.879291], [20.024881, 63.879298], [20.024881, 63.879298], [20.02489, 63.879311]]]}}, {"type": "Feature", "id": "http://www.github.com/sparqlunicorn#f4c616a4-3188-45f4-ad66-878498003c20", "name": "f4c616a4-3188-45f4-ad66-878498003c20 (suni:f4c616a4-3188-45f4-ad66-878498003c20)", "dateprops": [], "properties": {}, "geometry": {"type": "Point", "coordinates": [20.026574, 63.880119]}}, {"type": "Feature", "id": "http://www.github.com/sparqlunicorn#1d935768-ea8d-4be8-884b-a4dff9825021", "name": "1d935768-ea8d-4be8-884b-a4dff9825021 (suni:1d935768-ea8d-4be8-884b-a4dff9825021)", "dateprops": [], "properties": {}, "geometry": {"type": "Point", "coordinates": [20.02659, 63.880125]}}, {"type": "Feature", "id": "http://www.github.com/sparqlunicorn#37993191-20c4-49a4-b3bc-2a28960f323d", "name": "37993191-20c4-49a4-b3bc-2a28960f323d (suni:37993191-20c4-49a4-b3bc-2a28960f323d)", "dateprops": [], "properties": {}, "geometry": {"type": "Point", "coordinates": [20.026501, 63.880147]}}, {"type": "Feature", "id": "http://www.github.com/sparqlunicorn#a3006e8d-46d6-4db0-81aa-23238514e5eb", "name": "a3006e8d-46d6-4db0-81aa-23238514e5eb (suni:a3006e8d-46d6-4db0-81aa-23238514e5eb)", "dateprops": [], "properties": {}, "geometry": {"type": "Point", "coordinates": [20.026559, 63.880133]}}], "numberMatched": 18, "numberReturned": 18, "bbox": [20.024747, 63.879053, 20.02664, 63.880149], "crs": "http://www.opengis.net/def/crs/EPSG/0/4326"}